[{"OBJECT_NAME":"NIMIQ 2","OBJECT_ID":"2002-062A","EPOCH":"2026-03-02T13:35:41.501184","MEAN_MOTION":1.00272452,"ECCENTRICITY":0.0006514,"INCLINATION":9.2001,"RA_OF_ASC_NODE":58.003,"ARG_OF_PERICENTER":286.4807,"MEAN_ANOMALY":270.581,"EPHEMERIS_TYPE":0,"CLASSIFICATION_TYPE":"U","NORAD_CAT_ID":27632,"ELEMENT_SET_NO":999,"REV_AT_EPOCH":4311,"BSTAR":0,"MEAN_MOTION_DOT":-8.1e-7,"MEAN_MOTION_DDOT":0},{"OBJECT_NAME":"USA 167","OBJECT_ID":"2003-008A","EPOCH":"2026-03-02T13:40:45.123744","MEAN_MOTION":1.00271011,"ECCENTRICITY":0.0005882,"INCLINATION":10.7505,"RA_OF_ASC_NODE":44.3497,"ARG_OF_PERICENTER":288.9405,"MEAN_ANOMALY":270.5032,"EPHEMERIS_TYPE":0,"CLASSIFICATION_TYPE":"U","NORAD_CAT_ID":27691,"ELEMENT_SET_NO":999,"REV_AT_EPOCH":570,"BSTAR":0,"MEAN_MOTION_DOT":-7.0e-8,"MEAN_MOTION_DDOT":0},{"OBJECT_NAME":"USA 169 (MILSTAR-2 4)","OBJECT_ID":"2003-012A","EPOCH":"2026-03-02T15:16:45.378048","MEAN_MOTION":1.00272663,"ECCENTRICITY":0.0100285,"INCLINATION":12.1886,"RA_OF_ASC_NODE":30.6933,"ARG_OF_PERICENTER":3.4224,"MEAN_ANOMALY":147.6374,"EPHEMERIS_TYPE":0,"CLASSIFICATION_TYPE":"U","NORAD_CAT_ID":27711,"ELEMENT_SET_NO":999,"REV_AT_EPOCH":3188,"BSTAR":0,"MEAN_MOTION_DOT":-2.75e-6,"MEAN_MOTION_DDOT":0},{"OBJECT_NAME":"ASIASAT 4","OBJECT_ID":"2003-014A","EPOCH":"2026-03-02T19:52:38.716032","MEAN_MOTION":1.00269859,"ECCENTRICITY":0.0002673,"INCLINATION":4.4321,"RA_OF_ASC_NODE":77.0878,"ARG_OF_PERICENTER":267.9952,"MEAN_ANOMALY":261.2219,"EPHEMERIS_TYPE":0,"CLASSIFICATION_TYPE":"U","NORAD_CAT_ID":27718,"ELEMENT_SET_NO":999,"REV_AT_EPOCH":4423,"BSTAR":0,"MEAN_MOTION_DOT":-2.37e-6,"MEAN_MOTION_DDOT":0},{"OBJECT_NAME":"HELLAS-SAT 2","OBJECT_ID":"2003-020A","EPOCH":"2026-03-02T17:29:29.581440","MEAN_MOTION":1.00272111,"ECCENTRICITY":0.0008031,"INCLINATION":7.0903,"RA_OF_ASC_NODE":69.153,"ARG_OF_PERICENTER":241.4383,"MEAN_ANOMALY":102.2497,"EPHEMERIS_TYPE":0,"CLASSIFICATION_TYPE":"U","NORAD_CAT_ID":27811,"ELEMENT_SET_NO":999,"REV_AT_EPOCH":4177,"BSTAR":0,"MEAN_MOTION_DOT":-9.7e-7,"MEAN_MOTION_DDOT":0},{"OBJECT_NAME":"THURAYA-2","OBJECT_ID":"2003-026A","EPOCH":"2026-03-02T19:46:37.536384","MEAN_MOTION":1.00273762,"ECCENTRICITY":0.0003395,"INCLINATION":8.675,"RA_OF_ASC_NODE":32.3871,"ARG_OF_PERICENTER":311.9953,"MEAN_ANOMALY":156.8792,"EPHEMERIS_TYPE":0,"CLASSIFICATION_TYPE":"U","NORAD_CAT_ID":27825,"ELEMENT_SET_NO":999,"REV_AT_EPOCH":8328,"BSTAR":0,"MEAN_MOTION_DOT":1.13e-6,"MEAN_MOTION_DDOT":0},{"OBJECT_NAME":"OPTUS C1","OBJECT_ID":"2003-028B","EPOCH":"2026-03-02T19:53:38.746752","MEAN_MOTION":1.00271382,"ECCENTRICITY":0.0006207,"INCLINATION":6.6239,"RA_OF_ASC_NODE":70.6963,"ARG_OF_PERICENTER":273.1224,"MEAN_ANOMALY":270.9513,"EPHEMERIS_TYPE":0,"CLASSIFICATION_TYPE":"U","NORAD_CAT_ID":27831,"ELEMENT_SET_NO":999,"REV_AT_EPOCH":5199,"BSTAR":0,"MEAN_MOTION_DOT":-1.64e-6,"MEAN_MOTION_DDOT":0},{"OBJECT_NAME":"USA 170","OBJECT_ID":"2003-040A","EPOCH":"2026-03-02T19:50:31.118784","MEAN_MOTION":1.00276143,"ECCENTRICITY":0.0001476,"INCLINATION":10.2759,"RA_OF_ASC_NODE":48.9412,"ARG_OF_PERICENTER":290.9201,"MEAN_ANOMALY":142.5802,"EPHEMERIS_TYPE":0,"CLASSIFICATION_TYPE":"U","NORAD_CAT_ID":27875,"ELEMENT_SET_NO":999,"REV_AT_EPOCH":3193,"BSTAR":0,"MEAN_MOTION_DOT":1.15e-6,"MEAN_MOTION_DDOT":0},{"OBJECT_NAME":"GALAXY 13 (HORIZONS-1)","OBJECT_ID":"2003-044A","EPOCH":"2026-03-02T16:49:25.919616","MEAN_MOTION":1.00271805,"ECCENTRICITY":0.0002172,"INCLINATION":1.1424,"RA_OF_ASC_NODE":85.3303,"ARG_OF_PERICENTER":258.1948,"MEAN_ANOMALY":279.2877,"EPHEMERIS_TYPE":0,"CLASSIFICATION_TYPE":"U","NORAD_CAT_ID":27954,"ELEMENT_SET_NO":999,"REV_AT_EPOCH":4550,"BSTAR":0,"MEAN_MOTION_DOT":1.16e-6,"MEAN_MOTION_DDOT":0},{"OBJECT_NAME":"YAMAL 202","OBJECT_ID":"2003-053A","EPOCH":"2026-03-02T15:22:28.080192","MEAN_MOTION":1.00272196,"ECCENTRICITY":0.0005652,"INCLINATION":6.0734,"RA_OF_ASC_NODE":72.239,"ARG_OF_PERICENTER":239.5424,"MEAN_ANOMALY":242.7338,"EPHEMERIS_TYPE":0,"CLASSIFICATION_TYPE":"U","NORAD_CAT_ID":28089,"ELEMENT_SET_NO":999,"REV_AT_EPOCH":8163,"BSTAR":0,"MEAN_MOTION_DOT":-9.5e-7,"MEAN_MOTION_DDOT":0},{"OBJECT_NAME":"UFO 11 (USA 174)","OBJECT_ID":"2003-057A","EPOCH":"2026-03-02T19:56:01.857984","MEAN_MOTION":1.00272324,"ECCENTRICITY":0.0003521,"INCLINATION":8.8421,"RA_OF_ASC_NODE":34.3339,"ARG_OF_PERICENTER":290.3637,"MEAN_ANOMALY":210.3348,"EPHEMERIS_TYPE":0,"CLASSIFICATION_TYPE":"U","NORAD_CAT_ID":28117,"ELEMENT_SET_NO":999,"REV_AT_EPOCH":8138,"BSTAR":0,"MEAN_MOTION_DOT":-1.15e-6,"MEAN_MOTION_DDOT":0},{"OBJECT_NAME":"USA 176 (DSP 22)","OBJECT_ID":"2004-004A","EPOCH":"2026-03-02T08:58:38.852256","MEAN_MOTION":1.00272615,"ECCENTRICITY":0.00027297,"INCLINATION":11.9177,"RA_OF_ASC_NODE":26.8486,"ARG_OF_PERICENTER":272.9981,"MEAN_ANOMALY":258.5371,"EPHEMERIS_TYPE":0,"CLASSIFICATION_TYPE":"U","NORAD_CAT_ID":28158,"ELEMENT_SET_NO":999,"REV_AT_EPOCH":3186,"BSTAR":0,"MEAN_MOTION_DOT":-1.71e-6,"MEAN_MOTION_DDOT":0},{"OBJECT_NAME":"ABS-4 (MOBISAT-1)","OBJECT_ID":"2004-007A","EPOCH":"2026-03-02T16:31:37.356384","MEAN_MOTION":1.00271471,"ECCENTRICITY":0.0005359,"INCLINATION":5.7718,"RA_OF_ASC_NODE":73.3046,"ARG_OF_PERICENTER":271.4289,"MEAN_ANOMALY":124.5982,"EPHEMERIS_TYPE":0,"CLASSIFICATION_TYPE":"U","NORAD_CAT_ID":28184,"ELEMENT_SET_NO":999,"REV_AT_EPOCH":5127,"BSTAR":0,"MEAN_MOTION_DOT":2.5e-7,"MEAN_MOTION_DDOT":0},{"OBJECT_NAME":"EUTELSAT 139 WEST A","OBJECT_ID":"2004-008A","EPOCH":"2026-03-02T09:58:38.462880","MEAN_MOTION":1.00833696,"ECCENTRICITY":9.317e-5,"INCLINATION":5.5581,"RA_OF_ASC_NODE":73.2899,"ARG_OF_PERICENTER":48.9295,"MEAN_ANOMALY":146.2406,"EPHEMERIS_TYPE":0,"CLASSIFICATION_TYPE":"U","NORAD_CAT_ID":28187,"ELEMENT_SET_NO":999,"REV_AT_EPOCH":8028,"BSTAR":0,"MEAN_MOTION_DOT":-2.17e-6,"MEAN_MOTION_DDOT":0},{"OBJECT_NAME":"AMC-11","OBJECT_ID":"2004-017A","EPOCH":"2026-03-02T13:35:11.549760","MEAN_MOTION":1.00271773,"ECCENTRICITY":0.000321,"INCLINATION":0.0365,"RA_OF_ASC_NODE":78.716,"ARG_OF_PERICENTER":265.0212,"MEAN_ANOMALY":269.2867,"EPHEMERIS_TYPE":0,"CLASSIFICATION_TYPE":"U","NORAD_CAT_ID":28252,"ELEMENT_SET_NO":999,"REV_AT_EPOCH":7979,"BSTAR":0,"MEAN_MOTION_DOT":-6.6e-7,"MEAN_MOTION_DDOT":0},{"OBJECT_NAME":"INTELSAT 10-02","OBJECT_ID":"2004-022A","EPOCH":"2026-03-02T08:58:34.704192","MEAN_MOTION":1.002707,"ECCENTRICITY":0.00010616,"INCLINATION":0.0154,"RA_OF_ASC_NODE":120.8747,"ARG_OF_PERICENTER":247.9501,"MEAN_ANOMALY":284.9533,"EPHEMERIS_TYPE":0,"CLASSIFICATION_TYPE":"U","NORAD_CAT_ID":28358,"ELEMENT_SET_NO":999,"REV_AT_EPOCH":7948,"BSTAR":0,"MEAN_MOTION_DOT":-2.9e-7,"MEAN_MOTION_DDOT":0},{"OBJECT_NAME":"ANIK F2","OBJECT_ID":"2004-027A","EPOCH":"2026-03-02T15:17:54.204288","MEAN_MOTION":1.00272052,"ECCENTRICITY":0.0002927,"INCLINATION":3.0095,"RA_OF_ASC_NODE":80.8779,"ARG_OF_PERICENTER":293.7,"MEAN_ANOMALY":264.1867,"EPHEMERIS_TYPE":0,"CLASSIFICATION_TYPE":"U","NORAD_CAT_ID":28378,"ELEMENT_SET_NO":999,"REV_AT_EPOCH":4019,"BSTAR":0,"MEAN_MOTION_DOT":-6.5e-7,"MEAN_MOTION_DDOT":0}]
