NIMIQ 2                 
1 27632U 02062A   26061.56645256 -.00000081  00000+0  00000+0 0  9992
2 27632   9.2001  58.0030 0006514 286.4807 270.5810  1.00272452 43116
USA 167                 
1 27691U 03008A   26061.56996671 -.00000007  00000+0  00000+0 0  9996
2 27691  10.7505  44.3497 0005882 288.9405 270.5032  1.00271011  5709
USA 169 (MILSTAR-2 4)   
1 27711U 03012A   26061.63663632 -.00000275  00000+0  00000+0 0  9997
2 27711  12.1886  30.6933 0100285   3.4224 147.6374  1.00272663 31880
ASIASAT 4               
1 27718U 03014A   26061.82822588 -.00000237  00000+0  00000+0 0  9992
2 27718   4.4321  77.0878 0002673 267.9952 261.2219  1.00269859 44232
HELLAS-SAT 2            
1 27811U 03020A   26061.72881460 -.00000097  00000+0  00000+0 0  9990
2 27811   7.0903  69.1530 0008031 241.4383 102.2497  1.00272111 41770
THURAYA-2               
1 27825U 03026A   26061.82404556  .00000113  00000+0  00000+0 0  9997
2 27825   8.6750  32.3871 0003395 311.9953 156.8792  1.00273762 83284
OPTUS C1                
1 27831U 03028B   26061.82892068 -.00000164  00000+0  00000+0 0  9992
2 27831   6.6239  70.6963 0006207 273.1224 270.9513  1.00271382 51991
USA 170                 
1 27875U 03040A   26061.82674906  .00000115  00000+0  00000+0 0  9998
2 27875  10.2759  48.9412 0001476 290.9201 142.5802  1.00276143 31936
GALAXY 13 (HORIZONS-1)  
1 27954U 03044A   26061.70099444  .00000116  00000+0  00000+0 0  9996
2 27954   1.1424  85.3303 0002172 258.1948 279.2877  1.00271805 45502
YAMAL 202               
1 28089U 03053A   26061.64060278 -.00000095  00000+0  00000+0 0  9999
2 28089   6.0734  72.2390 0005652 239.5424 242.7338  1.00272196 81634
UFO 11 (USA 174)        
1 28117U 03057A   26061.83057706 -.00000115  00000+0  00000+0 0  9991
2 28117   8.8421  34.3339 0003521 290.3637 210.3348  1.00272324 81382
USA 176 (DSP 22)        
1 28158U 04004A   26061.37406079 -.00000171  00000+0  00000+0 0  9991
2 28158  11.9177  26.8486 0002729 272.9981 258.5371  1.00272615 31867
ABS-4 (MOBISAT-1)       
1 28184U 04007A   26061.68862681  .00000025  00000+0  00000+0 0  9999
2 28184   5.7718  73.3046 0005359 271.4289 124.5982  1.00271471 51270
EUTELSAT 139 WEST A     
1 28187U 04008A   26061.41572295 -.00000217  00000+0  00000+0 0  9997
2 28187   5.5581  73.2899 0000931  48.9295 146.2406  1.00833696 80287
AMC-11                  
1 28252U 04017A   26061.56610590 -.00000066  00000+0  00000+0 0  9999
2 28252   0.0365  78.7160 0003210 265.0212 269.2867  1.00271773 79798
INTELSAT 10-02          
1 28358U 04022A   26061.37401278 -.00000029  00000+0  00000+0 0  9991
2 28358   0.0154 120.8747 0001061 247.9501 284.9533  1.00270700 79482
ANIK F2                 
1 28378U 04027A   26061.63743292 -.00000065  00000+0  00000+0 0  9992
2 28378   3.0095  80.8779 0002927 293.7000 264.1867  1.00272052 40194
